NORAD_CAT_ID,OBJECT_NAME,OBJECT_TYPE,EPOCH,MEAN_MOTION,ECCENTRICITY,INCLINATION,RA_OF_ASC_NODE,ARG_OF_PERICENTER,MEAN_ANOMALY,BSTAR,MEAN_MOTION_DOT,MEAN_MOTION_DDOT,TLE_LINE0,TLE_LINE1,TLE_LINE2,SEMIMAJOR_AXIS,PERIOD,APOGEE,PERIGEE,DECAYED
53545.0,STARLINK-4475,PAYLOAD,2023-08-05 09:36:21,15.08835571,9.64e-05,53.218,356.6658,74.2663,285.8435,7.2037e-05,8.59e-06,0.0,0 STARLINK-4475,1 53545U 22101U   23217.40024655  .00000859  00000-0  72037-4 0  9994,2 53545  53.2180 356.6658 0000964  74.2663 285.8435 15.08835571 53296,6917.894,95.438,540.426,539.092,0.0
53545.0,STARLINK-4475,PAYLOAD,2023-08-05 15:57:53,15.08848922,0.0001048,53.2172,355.4773,63.9108,296.1992,0.00026734,3.97e-05,0.0,0 STARLINK-4475,1 53545U 22101U   23217.66519926  .00003970  00000-0  26734-3 0  9991,2 53545  53.2172 355.4773 0001048  63.9108 296.1992 15.08848922 53337,6917.853,95.437,540.443,538.993,0.0
53545.0,STARLINK-4475,PAYLOAD,2023-08-05 20:44:02,15.08861178,0.0001053,53.2176,354.5838,81.867,278.2442,0.0004363,6.667e-05,0.0,0 STARLINK-4475,1 53545U 22101U   23217.86391389  .00006667  00000-0  43630-3 0  9994,2 53545  53.2176 354.5838 0001053  81.8670 278.2442 15.08861178 53364,6917.816,95.436,540.409,538.952,0.0
53545.0,STARLINK-4475,PAYLOAD,2023-08-06 09:27:08,15.08819987,8.51e-05,53.2177,352.2052,95.8912,264.2177,-0.00034387,-5.753e-05,0.0,0 STARLINK-4475,1 53545U 22101U   23218.39385315 -.00005753  00000-0 -34387-3 0  9991,2 53545  53.2177 352.2052 0000851  95.8912 264.2177 15.08819987 53447,6917.942,95.439,540.395,539.218,0.0
53545.0,STARLINK-4475,PAYLOAD,2023-08-07 01:21:00,15.08828084,0.0001074,53.2178,349.2325,98.5041,261.6073,-2.2584e-05,-6.47e-06,0.0,0 STARLINK-4475,1 53545U 22101U   23219.05625977 -.00000647  00000-0 -22584-4 0  9990,2 53545  53.2178 349.2325 0001074  98.5041 261.6073 15.08828084 53543,6917.917,95.438,540.525,539.039,0.0
53545.0,STARLINK-4475,PAYLOAD,2023-08-07 14:04:05,15.08843921,8.95e-05,53.2177,346.8534,99.4129,260.6964,0.00035355,5.344e-05,0.0,0 STARLINK-4475,1 53545U 22101U   23219.58617731  .00005344  00000-0  35355-3 0  9993,2 53545  53.2177 346.8534 0000895  99.4129 260.6964 15.08843921 53628,6917.868,95.437,540.353,539.114,0.0
53545.0,STARLINK-4475,PAYLOAD,2023-08-08 01:11:48,15.08841966,0.0001404,53.2173,344.769,91.8428,268.2725,0.00071543,0.00011117,0.0,0 STARLINK-4475,1 53545U 22101U   23220.04986279  .00011117  00000-0  71543-3 0  9996,2 53545  53.2173 344.7690 0001404  91.8428 268.2725 15.08841966 53692,6917.874,95.437,540.711,538.768,0.0
53545.0,STARLINK-4475,PAYLOAD,2023-08-08 09:08:43,15.0885756,8.98e-05,53.2165,343.2825,91.1968,268.9127,0.00061041,9.445e-05,0.0,0 STARLINK-4475,1 53545U 22101U   23220.38105490  .00009445  00000-0  61041-3 0  9994,2 53545  53.2165 343.2825 0000898  91.1968 268.9127 15.08857560 53741,6917.827,95.436,540.313,539.07,0.0
53545.0,STARLINK-4475,PAYLOAD,2023-08-08 18:41:00,15.08881716,7.63e-05,53.2165,341.5003,100.4643,259.6435,0.0010386,0.00016299,0.0,0 STARLINK-4475,1 53545U 22101U   23220.77848369  .00016299  00000-0  10386-2 0  9996,2 53545  53.2165 341.5003 0000763 100.4643 259.6435 15.08881716 53801,6917.753,95.435,540.146,539.09,0.0
53545.0,STARLINK-4475,PAYLOAD,2023-08-09 15:21:01,15.08851192,7.44e-05,53.2162,337.6331,130.6654,229.4403,0.0003321,5.003e-05,0.0,0 STARLINK-4475,1 53545U 22101U   23221.63960449  .00005003  00000-0  33210-3 0  9999,2 53545  53.2162 337.6331 0000744 130.6654 229.4403 15.08851192 53933,6917.846,95.437,540.226,539.196,0.0
53545.0,STARLINK-4475,PAYLOAD,2023-08-10 16:47:12,15.08847159,7.86e-05,53.2155,332.8753,76.7279,283.3801,0.0014112,0.00022247,0.0,0 STARLINK-4475,1 53545U 22101U   23222.69945147  .00022247  00000-0  14112-2 0  9992,2 53545  53.2155 332.8753 0000786  76.7279 283.3801 15.08847159 54096,6917.859,95.437,540.267,539.18,0.0
53545.0,STARLINK-4475,PAYLOAD,2023-08-11 00:44:08,15.08839295,9e-05,53.2153,331.3887,77.8467,282.2626,-3.8796e-05,-9.05e-06,0.0,0 STARLINK-4475,1 53545U 22101U   23223.03065334 -.00000905  00000-0 -38796-4 0  9997,2 53545  53.2153 331.3887 0000900  77.8467 282.2626 15.08839295 54146,6917.883,95.438,540.37,539.125,0.0
53545.0,STARLINK-4475,PAYLOAD,2023-08-12 10:07:14,15.08847685,8.81e-05,53.2164,325.1445,70.1718,289.9369,0.00061089,9.45e-05,0.0,0 STARLINK-4475,1 53545U 22101U   23224.42169549  .00009450  00000-0  61089-3 0  9996,2 53545  53.2164 325.1445 0000881  70.1718 289.9369 15.08847685 54355,6917.857,95.437,540.331,539.112,0.0
53545.0,STARLINK-4475,PAYLOAD,2023-08-13 06:47:15,15.08843539,9.38e-05,53.2167,321.2789,68.0151,292.0941,0.00013518,1.864e-05,0.0,0 STARLINK-4475,1 53545U 22101U   23225.28281290  .00001864  00000-0  13518-3 0  9994,2 53545  53.2167 321.2789 0000938  68.0151 292.0941 15.08843539 54485,6917.87,95.437,540.383,539.086,0.0
53545.0,STARLINK-4475,PAYLOAD,2023-08-14 09:48:48,15.08849874,0.0001756,53.2164,316.2173,130.052,230.0627,0.00076608,0.00011928,0.0,0 STARLINK-4475,1 53545U 22101U   23226.40888948  .00011928  00000-0  76608-3 0  9993,2 53545  53.2164 316.2173 0001756 130.0520 230.0627 15.08849874 54652,6917.85,95.437,540.93,538.5,0.0
53545.0,STARLINK-4475,PAYLOAD,2023-08-14 22:31:53,15.08842797,8.22e-05,53.2175,313.8445,78.1169,281.9915,0.00017316,2.469e-05,0.0,0 STARLINK-4475,1 53545U 22101U   23226.93880938  .00002469  00000-0  17316-3 0  9993,2 53545  53.2175 313.8445 0000822  78.1169 281.9915 15.08842797 54734,6917.872,95.437,540.305,539.168,0.0
53545.0,STARLINK-4475,PAYLOAD,2023-08-15 22:22:40,15.08840346,0.0001025,53.2173,309.3853,81.5054,278.6055,0.00016346,2.315e-05,0.0,0 STARLINK-4475,1 53545U 22101U   23227.93241033  .00002315  00000-0  16346-3 0  9993,2 53545  53.2173 309.3853 0001025  81.5054 278.6055 15.08840346 54884,6917.879,95.438,540.453,539.035,0.0
53545.0,STARLINK-4475,PAYLOAD,2023-08-17 10:56:32,15.08844782,0.0001169,53.2165,302.5473,83.7459,276.3666,0.00037822,5.737e-05,0.0,0 STARLINK-4475,1 53545U 22101U   23229.45593313  .00005737  00000-0  37822-3 0  9996,2 53545  53.2165 302.5473 0001169  83.7459 276.3666 15.08844782 55118,6917.866,95.437,540.539,538.922,0.0
53545.0,STARLINK-4475,PAYLOAD,2023-08-17 22:04:14,15.08831999,6.66e-05,53.2162,300.4647,100.1423,259.9644,-0.00014983,-2.671e-05,0.0,0 STARLINK-4475,1 53545U 22101U   23229.91961330 -.00002671  00000-0 -14983-3 0  9994,2 53545  53.2162 300.4647 0000666 100.1423 259.9644 15.08831999 55187,6917.905,95.438,540.231,539.309,0.0
53545.0,STARLINK-4475,PAYLOAD,2023-08-18 13:58:06,15.08842692,0.0001028,53.2154,297.4914,90.9588,269.1522,0.00032409,4.874e-05,0.0,0 STARLINK-4475,1 53545U 22101U   23230.58201509  .00004874  00000-0  32409-3 0  9992,2 53545  53.2154 297.4914 0001028  90.9588 269.1522 15.08842692 55282,6917.872,95.437,540.448,539.026,0.0
53545.0,STARLINK-4475,PAYLOAD,2023-08-19 15:24:16,15.08854634,0.0001218,53.2161,292.7313,91.6033,268.5098,0.0006047,9.353e-05,0.0,0 STARLINK-4475,1 53545U 22101U   23231.64185311  .00009353  00000-0  60470-3 0  9998,2 53545  53.2161 292.7313 0001218  91.6033 268.5098 15.08854634 55443,6917.836,95.437,540.543,538.858,0.0
53545.0,STARLINK-4475,PAYLOAD,2023-08-20 04:07:21,15.08840344,9.96e-05,53.2158,290.3529,100.4271,259.6834,0.00012176,1.651e-05,0.0,0 STARLINK-4475,1 53545U 22101U   23232.17177655  .00001651  00000-0  12176-3 0  9992,2 53545  53.2158 290.3529 0000996 100.4271 259.6834 15.08840344 55528,6917.879,95.438,540.433,539.055,0.0
53545.0,STARLINK-4475,PAYLOAD,2023-08-21 10:19:41,15.08845397,0.0001117,53.2152,284.704,93.1377,266.9743,0.00028093,4.187e-05,0.0,0 STARLINK-4475,1 53545U 22101U   23233.43033754  .00004187  00000-0  28093-3 0  9995,2 53545  53.2152 284.7040 0001117  93.1377 266.9743 15.08845397 55712,6917.864,95.437,540.502,538.956,0.0
53545.0,STARLINK-4475,PAYLOAD,2023-08-22 10:10:27,15.08866649,0.0001153,53.2158,280.2431,99.566,260.5463,0.0006516,0.00010105,0.0,0 STARLINK-4475,1 53545U 22101U   23234.42392877  .00010105  00000-0  65160-3 0  9992,2 53545  53.2158 280.2431 0001153  99.5660 260.5463 15.08866649 55866,6917.799,95.436,540.462,538.866,0.0
53545.0,STARLINK-4475,PAYLOAD,2023-08-23 02:04:18,15.08848127,0.0001247,53.2154,277.2713,96.8357,263.2777,8.4331e-05,1.055e-05,0.0,0 STARLINK-4475,1 53545U 22101U   23235.08632973  .00001055  00000-0  84331-4 0  9995,2 53545  53.2154 277.2713 0001247  96.8357 263.2777 15.08848127 55968,6917.856,95.437,540.583,538.858,0.0
53545.0,STARLINK-4475,PAYLOAD,2023-08-23 08:25:51,15.08840466,9.06e-05,53.2152,276.0803,95.0671,265.0425,-3.7933e-05,-8.91e-06,0.0,0 STARLINK-4475,1 53545U 22101U   23235.35129230 -.00000891  00000-0 -37933-4 0  9997,2 53545  53.2152 276.0803 0000906  95.0671 265.0425 15.08840466 56008,6917.879,95.438,540.371,539.117,0.0
53545.0,STARLINK-4475,PAYLOAD,2023-08-24 13:02:48,15.08843287,0.0001029,53.2162,270.7271,102.326,257.7847,-9.3172e-05,-1.77e-05,0.0,0 STARLINK-4475,1 53545U 22101U   23236.54362023 -.00001770  00000-0 -93172-4 0  9992,2 53545  53.2162 270.7271 0001029 102.3260 257.7847 15.08843287 56877,6917.87,95.437,540.447,539.023,0.0
53545.0,STARLINK-4475,PAYLOAD,2023-08-25 09:42:49,15.08840992,9.88e-05,53.2158,266.8612,101.6237,258.4866,0.00018937,2.727e-05,0.0,0 STARLINK-4475,1 53545U 22101U   23237.40473883  .00002727  00000-0  18937-3 0  9991,2 53545  53.2158 266.8612 0000988 101.6237 258.4866 15.08840992 57001,6917.877,95.437,540.426,539.059,0.0
53545.0,STARLINK-4475,PAYLOAD,2023-08-26 01:36:41,15.08836218,0.0001053,53.2154,263.8877,92.386,267.7252,0.00012261,1.664e-05,0.0,0 STARLINK-4475,1 53545U 22101U   23238.06714548  .00001664  00000-0  12261-3 0  9993,2 53545  53.2154 263.8877 0001053  92.3860 267.7252 15.08836218 56411,6917.892,95.438,540.485,539.028,0.0
53545.0,STARLINK-4475,PAYLOAD,2023-08-26 07:58:13,15.08837086,0.0001067,53.2153,262.6981,90.4956,269.6159,0.00012414,1.688e-05,0.0,0 STARLINK-4475,1 53545U 22101U   23238.33210630  .00001688  00000-0  12414-3 0  9992,2 53545  53.2153 262.6981 0001067  90.4956 269.6159 15.08837086 57145,6917.889,95.438,540.492,539.016,0.0
